CCSDS_OMM_VERS = 2.0
CREATION_DATE  = 
ORIGINATOR     = 

OBJECT_NAME    = SL-8 R/B
OBJECT_ID      = 1985-006B
CENTER_NAME    = EARTH
REF_FRAME      = TEME
TIME_SYSTEM    = UTC
MEAN_ELEMENT_THEORY = SGP/SGP4

EPOCH          = 2025-11-30T19:03:32.431104
MEAN_MOTION    = 14.37709408
ECCENTRICITY   = .0018168
INCLINATION    = 74.0461
RA_OF_ASC_NODE = 83.1117
ARG_OF_PERICENTER = 18.6343
MEAN_ANOMALY   = 99.5000

EPHEMERIS_TYPE = 0
CLASSIFICATION_TYPE = U
NORAD_CAT_ID   = 15483
ELEMENT_SET_NO = 999
REV_AT_EPOCH   = 13981
BSTAR          = .10881E-3
MEAN_MOTION_DOT = .302E-5
MEAN_MOTION_DDOT = 0

CCSDS_OMM_VERS = 2.0
CREATION_DATE  = 
ORIGINATOR     = 

OBJECT_NAME    = SL-12 R/B(2)
OBJECT_ID      = 1985-042D
CENTER_NAME    = EARTH
REF_FRAME      = TEME
TIME_SYSTEM    = UTC
MEAN_ELEMENT_THEORY = SGP/SGP4

EPOCH          = 2025-11-30T20:21:32.802912
MEAN_MOTION    = 14.21945685
ECCENTRICITY   = .0037673
INCLINATION    = 71.1080
RA_OF_ASC_NODE = 296.5418
ARG_OF_PERICENTER = 278.8844
MEAN_ANOMALY   = 96.6029

EPHEMERIS_TYPE = 0
CLASSIFICATION_TYPE = U
NORAD_CAT_ID   = 15772
ELEMENT_SET_NO = 999
REV_AT_EPOCH   = 10034
BSTAR          = .75145E-4
MEAN_MOTION_DOT = .119E-5
MEAN_MOTION_DDOT = 0

CCSDS_OMM_VERS = 2.0
CREATION_DATE  = 
ORIGINATOR     = 

OBJECT_NAME    = SL-14 R/B
OBJECT_ID      = 1985-069B
CENTER_NAME    = EARTH
REF_FRAME      = TEME
TIME_SYSTEM    = UTC
MEAN_ELEMENT_THEORY = SGP/SGP4

EPOCH          = 2025-11-30T18:51:00.040032
MEAN_MOTION    = 14.86300219
ECCENTRICITY   = .001939
INCLINATION    = 82.5254
RA_OF_ASC_NODE = 117.9409
ARG_OF_PERICENTER = 156.1205
MEAN_ANOMALY   = 204.0916

EPHEMERIS_TYPE = 0
CLASSIFICATION_TYPE = U
NORAD_CAT_ID   = 15945
ELEMENT_SET_NO = 999
REV_AT_EPOCH   = 15814
BSTAR          = .7125E-4
MEAN_MOTION_DOT = .653E-5
MEAN_MOTION_DDOT = 0

CCSDS_OMM_VERS = 2.0
CREATION_DATE  = 
ORIGINATOR     = 

OBJECT_NAME    = SL-16 R/B
OBJECT_ID      = 1985-097B
CENTER_NAME    = EARTH
REF_FRAME      = TEME
TIME_SYSTEM    = UTC
MEAN_ELEMENT_THEORY = SGP/SGP4

EPOCH          = 2025-11-30T19:07:42.856320
MEAN_MOTION    = 14.16582129
ECCENTRICITY   = .0005969
INCLINATION    = 71.0035
RA_OF_ASC_NODE = 348.7470
ARG_OF_PERICENTER = 30.1407
MEAN_ANOMALY   = 142.2288

EPHEMERIS_TYPE = 0
CLASSIFICATION_TYPE = U
NORAD_CAT_ID   = 16182
ELEMENT_SET_NO = 999
REV_AT_EPOCH   = 7322
BSTAR          = -.68246E-4
MEAN_MOTION_DOT = -.184E-5
MEAN_MOTION_DDOT = 0

CCSDS_OMM_VERS = 2.0
CREATION_DATE  = 
ORIGINATOR     = 

OBJECT_NAME    = SL-14 R/B
OBJECT_ID      = 1986-006B
CENTER_NAME    = EARTH
REF_FRAME      = TEME
TIME_SYSTEM    = UTC
MEAN_ELEMENT_THEORY = SGP/SGP4

EPOCH          = 2025-11-30T18:52:40.843776
MEAN_MOTION    = 14.86645313
ECCENTRICITY   = .0075382
INCLINATION    = 82.5270
RA_OF_ASC_NODE = 352.7993
ARG_OF_PERICENTER = 239.9672
MEAN_ANOMALY   = 119.4052

EPHEMERIS_TYPE = 0
CLASSIFICATION_TYPE = U
NORAD_CAT_ID   = 16496
ELEMENT_SET_NO = 999
REV_AT_EPOCH   = 13451
BSTAR          = .78673E-4
MEAN_MOTION_DOT = .761E-5
MEAN_MOTION_DDOT = 0

CCSDS_OMM_VERS = 2.0
CREATION_DATE  = 
ORIGINATOR     = 

OBJECT_NAME    = COSMOS 1743
OBJECT_ID      = 1986-034A
CENTER_NAME    = EARTH
REF_FRAME      = TEME
TIME_SYSTEM    = UTC
MEAN_ELEMENT_THEORY = SGP/SGP4

EPOCH          = 2025-11-30T20:28:24.364992
MEAN_MOTION    = 15.51253692
ECCENTRICITY   = .0005025
INCLINATION    = 82.5353
RA_OF_ASC_NODE = 176.9295
ARG_OF_PERICENTER = 306.3578
MEAN_ANOMALY   = 53.7209

EPHEMERIS_TYPE = 0
CLASSIFICATION_TYPE = U
NORAD_CAT_ID   = 16719
ELEMENT_SET_NO = 999
REV_AT_EPOCH   = 16489
BSTAR          = .39348E-3
MEAN_MOTION_DOT = .23122E-3
MEAN_MOTION_DDOT = 0

CCSDS_OMM_VERS = 2.0
CREATION_DATE  = 
ORIGINATOR     = 

OBJECT_NAME    = SL-14 R/B
OBJECT_ID      = 1986-046B
CENTER_NAME    = EARTH
REF_FRAME      = TEME
TIME_SYSTEM    = UTC
MEAN_ELEMENT_THEORY = SGP/SGP4

EPOCH          = 2025-11-30T15:46:08.266368
MEAN_MOTION    = 14.85464385
ECCENTRICITY   = .0022769
INCLINATION    = 82.4813
RA_OF_ASC_NODE = 173.7250
ARG_OF_PERICENTER = 191.8179
MEAN_ANOMALY   = 168.2506

EPHEMERIS_TYPE = 0
CLASSIFICATION_TYPE = U
NORAD_CAT_ID   = 16792
ELEMENT_SET_NO = 999
REV_AT_EPOCH   = 11170
BSTAR          = .57613E-4
MEAN_MOTION_DOT = .523E-5
MEAN_MOTION_DDOT = 0

CCSDS_OMM_VERS = 2.0
CREATION_DATE  = 
ORIGINATOR     = 

OBJECT_NAME    = SL-14 R/B
OBJECT_ID      = 1986-055B
CENTER_NAME    = EARTH
REF_FRAME      = TEME
TIME_SYSTEM    = UTC
MEAN_ELEMENT_THEORY = SGP/SGP4

EPOCH          = 2025-11-30T19:00:19.988928
MEAN_MOTION    = 14.85511591
ECCENTRICITY   = .0017689
INCLINATION    = 82.5214
RA_OF_ASC_NODE = 219.5984
ARG_OF_PERICENTER = 302.3021
MEAN_ANOMALY   = 126.9825

EPHEMERIS_TYPE = 0
CLASSIFICATION_TYPE = U
NORAD_CAT_ID   = 16882
ELEMENT_SET_NO = 999
REV_AT_EPOCH   = 10468
BSTAR          = .59819E-4
MEAN_MOTION_DOT = .541E-5
MEAN_MOTION_DDOT = 0

CCSDS_OMM_VERS = 2.0
CREATION_DATE  = 
ORIGINATOR     = 

OBJECT_NAME    = AJISAI (EGS)
OBJECT_ID      = 1986-061A
CENTER_NAME    = EARTH
REF_FRAME      = TEME
TIME_SYSTEM    = UTC
MEAN_ELEMENT_THEORY = SGP/SGP4

EPOCH          = 2025-11-30T20:49:01.161120
MEAN_MOTION    = 12.44514112
ECCENTRICITY   = .0011257
INCLINATION    = 50.0112
RA_OF_ASC_NODE = 37.2236
ARG_OF_PERICENTER = 36.0973
MEAN_ANOMALY   = 77.0565

EPHEMERIS_TYPE = 0
CLASSIFICATION_TYPE = U
NORAD_CAT_ID   = 16908
ELEMENT_SET_NO = 999
REV_AT_EPOCH   = 45569
BSTAR          = -.42256E-4
MEAN_MOTION_DOT = -.103E-5
MEAN_MOTION_DDOT = 0

CCSDS_OMM_VERS = 2.0
CREATION_DATE  = 
ORIGINATOR     = 

OBJECT_NAME    = COSMOS 1812
OBJECT_ID      = 1987-003A
CENTER_NAME    = EARTH
REF_FRAME      = TEME
TIME_SYSTEM    = UTC
MEAN_ELEMENT_THEORY = SGP/SGP4

EPOCH          = 2025-11-30T09:31:17.689728
MEAN_MOTION    = 15.72576547
ECCENTRICITY   = .0006903
INCLINATION    = 82.4870
RA_OF_ASC_NODE = 305.3491
ARG_OF_PERICENTER = 103.5778
MEAN_ANOMALY   = 256.6254

EPHEMERIS_TYPE = 0
CLASSIFICATION_TYPE = U
NORAD_CAT_ID   = 17295
ELEMENT_SET_NO = 999
REV_AT_EPOCH   = 12871
BSTAR          = .64067251E-3
MEAN_MOTION_DOT = .86438E-3
MEAN_MOTION_DDOT = 0

CCSDS_OMM_VERS = 2.0
CREATION_DATE  = 
ORIGINATOR     = 

OBJECT_NAME    = SL-14 R/B
OBJECT_ID      = 1987-024B
CENTER_NAME    = EARTH
REF_FRAME      = TEME
TIME_SYSTEM    = UTC
MEAN_ELEMENT_THEORY = SGP/SGP4

EPOCH          = 2025-11-30T20:39:52.865856
MEAN_MOTION    = 14.86004902
ECCENTRICITY   = .0017147
INCLINATION    = 82.5282
RA_OF_ASC_NODE = 185.6129
ARG_OF_PERICENTER = 224.9673
MEAN_ANOMALY   = 135.0156

EPHEMERIS_TYPE = 0
CLASSIFICATION_TYPE = U
NORAD_CAT_ID   = 17567
ELEMENT_SET_NO = 999
REV_AT_EPOCH   = 7345
BSTAR          = .53683E-4
MEAN_MOTION_DOT = .494E-5
MEAN_MOTION_DDOT = 0

CCSDS_OMM_VERS = 2.0
CREATION_DATE  = 
ORIGINATOR     = 

OBJECT_NAME    = COSMOS 1833
OBJECT_ID      = 1987-027A
CENTER_NAME    = EARTH
REF_FRAME      = TEME
TIME_SYSTEM    = UTC
MEAN_ELEMENT_THEORY = SGP/SGP4

EPOCH          = 2025-11-30T19:47:47.782176
MEAN_MOTION    = 14.13018125
ECCENTRICITY   = .0022019
INCLINATION    = 70.9123
RA_OF_ASC_NODE = 173.8247
ARG_OF_PERICENTER = 348.5296
MEAN_ANOMALY   = 11.5320

EPHEMERIS_TYPE = 0
CLASSIFICATION_TYPE = U
NORAD_CAT_ID   = 17589
ELEMENT_SET_NO = 999
REV_AT_EPOCH   = 99634
BSTAR          = .32233E-4
MEAN_MOTION_DOT = .12E-6
MEAN_MOTION_DDOT = 0

CCSDS_OMM_VERS = 2.0
CREATION_DATE  = 
ORIGINATOR     = 

OBJECT_NAME    = SL-16 R/B
OBJECT_ID      = 1987-027B
CENTER_NAME    = EARTH
REF_FRAME      = TEME
TIME_SYSTEM    = UTC
MEAN_ELEMENT_THEORY = SGP/SGP4

EPOCH          = 2025-11-30T17:34:38.915904
MEAN_MOTION    = 14.17151293
ECCENTRICITY   = .000743
INCLINATION    = 71.0015
RA_OF_ASC_NODE = 125.0190
ARG_OF_PERICENTER = 272.2661
MEAN_ANOMALY   = 87.7612

EPHEMERIS_TYPE = 0
CLASSIFICATION_TYPE = U
NORAD_CAT_ID   = 17590
ELEMENT_SET_NO = 999
REV_AT_EPOCH   = 132
BSTAR          = .10153E-3
MEAN_MOTION_DOT = .157E-5
MEAN_MOTION_DDOT = 0

CCSDS_OMM_VERS = 2.0
CREATION_DATE  = 
ORIGINATOR     = 

OBJECT_NAME    = SL-14 R/B
OBJECT_ID      = 1987-038B
CENTER_NAME    = EARTH
REF_FRAME      = TEME
TIME_SYSTEM    = UTC
MEAN_ELEMENT_THEORY = SGP/SGP4

EPOCH          = 2025-11-30T16:05:32.076096
MEAN_MOTION    = 14.85243153
ECCENTRICITY   = .0020509
INCLINATION    = 82.5028
RA_OF_ASC_NODE = 30.0680
ARG_OF_PERICENTER = 129.2810
MEAN_ANOMALY   = 231.0229

EPHEMERIS_TYPE = 0
CLASSIFICATION_TYPE = U
NORAD_CAT_ID   = 17912
ELEMENT_SET_NO = 999
REV_AT_EPOCH   = 6453
BSTAR          = .53932E-4
MEAN_MOTION_DOT = .489E-5
MEAN_MOTION_DDOT = 0

CCSDS_OMM_VERS = 2.0
CREATION_DATE  = 
ORIGINATOR     = 

OBJECT_NAME    = COSMOS 1844
OBJECT_ID      = 1987-041A
CENTER_NAME    = EARTH
REF_FRAME      = TEME
TIME_SYSTEM    = UTC
MEAN_ELEMENT_THEORY = SGP/SGP4

EPOCH          = 2025-11-30T18:03:29.119968
MEAN_MOTION    = 14.14527966
ECCENTRICITY   = .0030542
INCLINATION    = 70.8992
RA_OF_ASC_NODE = 242.8535
ARG_OF_PERICENTER = 176.0166
MEAN_ANOMALY   = 184.1205

EPHEMERIS_TYPE = 0
CLASSIFICATION_TYPE = U
NORAD_CAT_ID   = 17973
ELEMENT_SET_NO = 999
REV_AT_EPOCH   = 98959
BSTAR          = -.59569E-4
MEAN_MOTION_DOT = -.163E-5
MEAN_MOTION_DDOT = 0

